CENTAURI-6              
1 59451U 24066K   26068.32290132  .00007311  00000+0  52686-3 0  9997
2 59451  45.6063  55.7055 0002534 285.4438  74.6166 15.04786474105074
STARLINK-35328          
1 65652U 25211A   26068.72501779  .00013838  00000+0  96052-3 0  9992
2 65652  97.6041 114.0452 0001043  76.5947 283.5396 15.05684601 27041
